BEIDOU-2 G5 (C05)       
1 38091U 12008A   26064.80880238  .00000050  00000+0  00000+0 0  9990
2 38091   3.3161  70.3073 0014042 251.2410 191.9734  1.00276982 51334
BEIDOU-2 M3 (C11)       
1 38250U 12018A   26064.01894681 -.00000067  00000+0  00000+0 0  9997
2 38250  55.8459 308.3876 0021147 279.6506  80.1690  1.86229821 94007
BEIDOU-2 M4 (C12)       
1 38251U 12018B   26062.87717712 -.00000061  00000+0  00000+0 0  9993
2 38251  55.7474 307.6486 0012644 286.4281  73.4931  1.86229513 93988
SES-5 (EGNOS/PRN 136)   
1 38652U 12036A   26064.79814234  .00000027  00000+0  00000+0 0  9999
2 38652   0.0592 310.9487 0002092  30.7681 114.1049  1.00270655 43421
BEIDOU-2 M6 (C14)       
1 38775U 12050B   26063.66128696 -.00000027  00000+0  00000+0 0  9997
2 38775  56.4533  66.3489 0013968 341.8059  18.1670  1.86230964 91362
GSAT-10 (GAGAN/PRN 128) 
1 38779U 12051B   26064.85112927 -.00000171  00000+0  00000+0 0  9994
2 38779   0.0700 262.6405 0004437 176.7999 113.5160  1.00273421 49060
GPS BIIF-3  (PRN 24)    
1 38833U 12053A   26064.11552350  .00000009  00000+0  00000+0 0  9993
2 38833  53.5659 147.8643 0176939  64.7787 297.0919  2.00565848 97356
GSAT0103 (GALILEO-FM3)  
1 38857U 12055A   26063.47673480  .00000012  00000+0  00000+0 0  9991
2 38857  55.7384 104.4182 0005407 285.3640  74.6606  1.70473427 83228
BEIDOU-2 G6 (C02)       
1 38953U 12059A   26063.10227411 -.00000185  00000+0  00000+0 0  9993
2 38953   4.1554  74.6500 0010671 304.2337 263.7683  1.00269514 48856
LUCH 5B (SDCM/PRN 125)  
1 38977U 12061A   26064.56567874 -.00000141  00000+0  00000+0 0  9995
2 38977  10.2612  50.8943 0004162 224.5827  75.1508  1.00271642 48562
COSMOS 2485 (747)       
1 39155U 13019A   26063.73454937  .00000012  00000+0  00000+0 0  9997
2 39155  65.3600  77.1091 0025497 236.8511 122.9458  2.13102928100058
GPS BIIF-4  (PRN 27)    
1 39166U 13023A   26063.98037619 -.00000016  00000+0  00000+0 0  9990
2 39166  54.5857 273.2171 0141620  49.9246 311.3385  2.00564217 93791
IRNSS-1A                
1 39199U 13034A   26062.59712745  .00000081  00000+0  00000+0 0  9995
2 39199  35.4874  65.3779 0017825 190.7092 175.2371  1.00269823 46313
GPS BIIF-5  (PRN 30)    
1 39533U 14008A   26064.47751616  .00000008  00000+0  00000+0 0  9997
2 39533  53.6378 153.5513 0082337 228.3363 130.9939  2.00553167 87604
ASTRA 5B (EGNOS/PRN 123)
1 39617U 14011B   26064.80178235  .00000130  00000+0  00000+0 0  9997
2 39617   0.0881 300.1271 0004068  27.9663 147.5476  1.00271766 43630
COSMOS 2492 (754)       
1 39620U 14012A   26064.16266492 -.00000055  00000+0  00000+0 0  9991
2 39620  65.3573 317.4735 0013205 326.0638  33.9124  2.13103074 93027
IRNSS-1B                
1 39635U 14017A   26062.54882074  .00000102  00000+0  00000+0 0  9994
2 39635  29.1127 242.2056 0021171 179.2461 352.3815  1.00270890 43734
